Number,Street Address,City,State,Zip
1,20 HOBO FORK RD.,NATCHEZ,MS,39120
2,10250 RANCHO ROAD,ADELANTO,CA,92301
3,109 SOUTH MAPLE STREET,GRAHAM,NC,27253
4,7340 HIGHWAY 26 WEST,OBERLIN,LA,70655
5,1 SHERIFF OFFICE DRIVE,MACCLENNY,FL,32063
6,400 2ND STREET,ANSON,TX,79501
7,3020 CONRAD LANE,BURLINGTON,KY,41005
8,3900 NORTH POWERLINE ROAD,POMPANO BEACH,FL,33073
9,4250 FEDERAL DRIVE,BATAVIA,NY,14020
10,185 EAST MICHIGAN AVENUE,BATTLE CREEK,MI,49014
11,11093 S.W. LEWIS MEMORIAL DRIVE,BOWLING GREEN,VA,22427
12,1100 BOWLING ROAD,FLORENCE,AZ,85132
13,830 PINEHILL ROAD,JENA,LA,71342
14,301 SOUTH WALNUT STREET,COTTONWOOD FALL,KS,66845
15,325 COURT STREET,SAULT SAINTE MARIE,MI,49783
16,2000 CIBOLA LOOP,MILAN,NM,87021
17,611 EAST JACKSON STREET,BRAZIL,IN,47834
18,419 SHOEMAKER ROAD,LOCK HAVEN,PA,17745
19,25 MCCARTHY DRIVE,PLATTSBURGH,NY,12901
20,"TEKKEN ST., SUSUPE VILLAGE",SAIPAN,MP,96950
21,4909 FM (FARM TO MARKET) 2826,ROBSTOWN,TX,78380
22,4702 EAST SAUNDERS STREET,LAREDO,TX,78041
23,9998 SOUTH HIGHWAY 83,LAREDO,TX,78041
24,3130 N. OAKLAND ST.,AURORA,CO,80010
25,10450 RANCHO ROAD,ADELANTO,CA,92301
26,215 WEST CENTRAL STREET,JUNEAU,WI,53039
27,1330 HIGHWAY 107,LA VILLA,TX,78562
28,702 E BROADWAY ST,EDEN,TX,76837
29,8915 MONTANA AVE.,EL PASO,TX,79925
30,1800 INDUSTRIAL DRIVE,RAYMONDVILLE,TX,78580
31,625 EVANS STREET,ELIZABETH,NJ,07201
32,2255 E. 8TH NORTH,MOUNTAIN HOME,ID,83647
33,1705 EAST HANNA RD.,ELOY,AZ,85131
34,351 ELLIOTT STREET,HONOLULU,HI,96819
35,3250 NORTH PINAL PARKWAY,FLORENCE,AZ,85132
36,3424 HIGHWAY 252 EAST,FOLKSTON,GA,31537
37,3026 HWY 252 EAST,FOLKSTON,GA,31537
38,411 SOUTH BROADWAY AVENUE,ALBERT LEA,MN,56007
39,12450 MERRITT DR,CHARDON,OH,44024
40,1297 EAST SR 78 ,MOORE HAVEN,FL,33471
41,611 FRONTAGE RD,MCFARLAND,CA,93250
42,1701 NORTH WASHINGTON ST,GRAND FORKS,ND,58206
43,203 ASPINALL AVENUE,HAGATNA,GU,96910
44,110 PUBLIC SAFETY DRIVE,GRAND ISLAND,NE,68801
45,18 E BASIC ROAD,HENDERSON,NV,89015
46,15850 EXPORT PLAZA DRIVE,HOUSTON,TX,77032
47,3400 FM 350 SOUTH,LIVINGSTON,TX,77351
48,508 WATERWORKS ROAD,FARMVILLE,VA,23901
49,1572 GATEWAY,CALEXICO,CA,92231
50,327 INDUSTRIAL DRIVE,JONESBORO,LA,71251
51,500 HILBIG RD,CONROE,TX,77301
52,2201 23RD ST NE,WILLMAR,MN,56201
53,409 FM 1144,KARNES CITY,TX,78118
54,1101 WEST DRY ROAD,NEWKIRK,OK,74647
55,18201 SOUTHWEST 12TH STREET,MIAMI,FL,33194
56,910 NORTH TYUS STREET,GROESBECK,TX,76642
57,53 3RD AVE BRIDGE ,CEDAR RAPIDS,IA,52401
58,425 GOLDEN STATE AVE,BAKERSFIELD,CA,93301
59,7000 EAST DUNBAR ROAD,MONROE,MI,48161
60,806 HILBIG RD,CONROE,TX,77301
61,555 GEO DRIVE,PHILIPSBURG,PA,16866
62,2190 EAST MESQUITE AVENUE,PAHRUMP,NV,89060
63,1623 E. J STREET,TACOMA,WA,98421
64,1520 E. BASIN ROAD,PAHRUMP,NV,89060
65,110 WELLS FARM ROAD,GOSHEN,NY,10924
66,7488 CALZADA DE LA FUENTE,SAN DIEGO,CA,92154
67,26 MCGREGOR RANGE ROAD,CHAPARRAL,NM,88081
68,307 SAINT JOSEPH STREET,RAPID CITY,SD,57701
69,715 5TH AVENUE,HOLDREGE,NE,68949
70,175 PIKE COUNTY BOULEVARD,LORDS VALLEY,PA,18428
71,1133 HAMPTON DUPRE ROAD,PINE PRAIRIE,LA,70576
72,26 LONG POND ROAD,PLYMOUTH,MA,02360
73,1985 NE 51ST PLACE,DES MOINES,IA,50313
74,27991 BUENA VISTA BOULEVARD,LOS FRESNOS,TX,78566
75,1400 BIG LAKE ROAD,COUNCIL BLUFFS,IA,51501
76,1209 SUNFLOWER LN,ALVARADO,TX,76009
77,180 PINE BAYOU CIRCLE,RICHWOOD,LA,71202
78,1001 SAN RIO BOULEVARD,LAREDO,TX,78046
79,26362 HIGHWAY 15,FERRIDAY,LA,71334
80,11866 HASTINGS BRIDGE ROAD P.O. BOX 429,LOVEJOY,GA,30250
81,118 COUNTY ROAD 206,HASKELL,TX,79521
82,406 NORTH AVENUE D,SAN LUIS,AZ,85349
83,3040 SOUTH STATE HIGHWAY 100,TIFFIN,OH,44883
84,13880 BUSINESS CENTER DRIVE,ELK RIVER,MN,55330
85,3843 STAGG AVENUE,BASILE,LA,70515
86,300 EL RANCHO WAY,DILLEY,TX,78017
87,566 VETERANS DRIVE,PEARSALL,TX,78061
88,1170 MICHIGAN ROAD,PORT HURON,MI,48060
89,146 CCA ROAD,LUMPKIN,GA,31815
90,266 COUNTY FARM ROAD,DOVER,NH,03820
91,1001 WELCH STREET,TAYLOR,TX,76574
92,209 COUNTY ROAD 49,ESTANCIA,NM,87016
93,911 PARR BOULEVARD,RENO,NV,89512
94,560 GUM SPRING ROAD,WINNFIELD,LA,71483
95,950 HIGH STREET,CENTRAL FALLS,RI,02863